OBJECT_NAME,OBJECT_ID,EPOCH,MEAN_MOTION,ECCENTRICITY,INCLINATION,RA_OF_ASC_NODE,ARG_OF_PERICENTER,MEAN_ANOMALY,EPHEMERIS_TYPE,CLASSIFICATION_TYPE,NORAD_CAT_ID,ELEMENT_SET_NO,REV_AT_EPOCH,BSTAR,MEAN_MOTION_DOT,MEAN_MOTION_DDOT
POLYITAN-1,2014-033AJ,2026-07-20T20:17:04.794432,15.34345440,.00073868,98.0939,231.3187,47.4734,312.7130,0,U,40042,999,65875,.41821953E-3,.13839E-3,0
TIGRISAT,2014-033AK,2026-07-20T22:28:09.004512,14.85259956,.0048182,97.7873,351.1843,325.2166,34.5902,0,U,40043,999,65063,.11612717E-3,.961E-5,0
AEROCUBE 6A,2014-033AM,2026-07-19T22:46:38.682048,14.98375370,.00361088,97.7268,7.5592,264.4849,95.2254,0,U,40045,999,65152,.29632068E-3,.3519E-4,0
AEROCUBE 6B,2014-033AN,2026-07-20T22:05:12.395040,14.99831531,.00382286,97.7208,8.3775,249.8960,109.8147,0,U,40046,999,65181,.30006501E-3,.371E-4,0
CANX-4,2014-034C,2026-07-20T22:14:10.640256,14.81317179,.00113727,98.3075,78.4714,262.2011,97.7910,0,U,40055,999,64952,.72017063E-4,.505E-5,0
CANX-5,2014-034D,2026-07-20T22:11:21.203808,14.81334525,.00113767,98.3078,78.5149,262.4767,97.5152,0,U,40056,999,64033,.7227107E-4,.507E-5,0
UKUBE-1,2014-037F,2026-07-20T22:41:12.909120,15.14005396,.00031535,98.4253,208.7782,78.4242,281.7341,0,U,40074,999,65366,.31823271E-3,.5701E-4,0
BRITE-PL2 (HEWELIUSZ),2014-049B,2026-07-20T20:18:50.726016,14.94696779,.00137817,97.9121,314.1126,3.8262,356.3061,0,U,40119,999,64647,.1118261E-3,.1155E-4,0
AEROCUBE 5C,2015-058B,2026-07-20T11:52:05.415168,14.91597637,.01327502,64.7663,158.9594,50.4146,310.8601,0,U,40965,999,37062,.19603663E-3,.2156E-4,0
AEROCUBE 7,2015-058C,2026-07-20T22:18:49.461696,14.95949537,.01224441,64.7618,139.1079,48.5671,312.5885,0,U,40966,999,37100,.2865484E-3,.3562E-4,0
FOX-1A (AO-85),2015-058D,2026-07-20T06:49:54.830496,14.91108157,.01327836,64.7727,176.1140,43.8857,317.2710,0,U,40967,999,11850,.1792955E-3,.1929E-4,0
SINOD-D 1,2015-058E,2026-07-20T07:15:02.731680,14.96119091,.01214895,64.7742,155.1914,40.2216,320.7809,0,U,40968,999,12161,.25651421E-3,.3176E-4,0
SNAP-3 ALICE,2015-058G,2026-07-20T19:11:14.582976,15.68328334,.00259742,64.7499,346.9938,344.9171,15.1201,0,U,40970,999,12214,.92627194E-3,.107719E-2,0
LMRST-SAT,2015-058H,2026-07-20T07:34:24.890304,14.90722607,.0134311,64.7735,172.4195,45.8734,315.3331,0,U,40971,999,11849,.17278275E-3,.1839E-4,0
SNAP-3 EDDIE,2015-058J,2026-07-20T18:17:11.475168,15.69813976,.00270518,64.7408,337.5871,347.3948,12.6523,0,U,40972,999,12428,.99023508E-3,.122926E-2,0
PROPCUBE 3,2015-058K,2026-07-20T22:31:26.208192,14.94447460,.01262219,64.7679,147.0676,46.8178,314.3399,0,U,40973,999,11984,.26893914E-3,.3224E-4,0
BISONSAT,2015-058L,2026-07-20T22:13:38.796672,15.17025170,.00826564,64.7583,64.4840,33.3744,327.2552,0,U,40974,999,12073,.44086803E-3,.9362E-4,0
SNAP-3 JIMI,2015-058M,2026-07-20T03:17:10.192992,15.02651100,.01082228,64.7643,115.4924,42.4177,318.5241,0,U,40975,999,11917,.2933415E-3,.4266E-4,0
PROPCUBE 1 (FLORA),2015-058N,2026-07-20T23:20:19.193568,14.89348635,.0132904,64.7718,190.5143,47.8987,313.3333,0,U,40976,999,12129,.18387138E-3,.1887E-4,0
SINOD-D 3,2015-058P,2026-07-20T21:48:28.548000,14.94204989,.01215212,64.7712,170.5005,44.9477,316.1395,0,U,40977,999,11979,.28120595E-3,.3317E-4,0
RAVAN,2016-067B,2026-07-20T05:17:15.001728,15.57823305,.00028888,97.9827,94.6874,193.5482,166.5694,0,U,41849,999,53283,.45835135E-3,.34088E-3,0
CELTEE 1,2016-067C,2026-07-19T14:23:06.146880,15.19964565,.0002435,98.0629,69.3765,104.1559,255.9945,0,U,41850,999,53080,.12003E-3,.2504E-4,0
OPTICUBE 04,2016-067D,2026-07-20T10:00:44.065152,15.09784034,.001576,98.0671,55.4321,10.9128,349.2439,0,U,41851,999,53018,.78858148E-4,.1205E-4,0
AEROCUBE 8D,2016-067E,2026-07-20T21:21:41.514912,15.24818070,.00042339,98.0635,74.6276,42.1068,318.0492,0,U,41852,999,53120,.20584939E-3,.5027E-4,0
AEROCUBE 8C,2016-067F,2026-07-20T21:49:37.977312,15.25072158,.00038512,98.0509,71.8333,318.3427,41.7515,0,U,41853,999,53120,.21152234E-3,.5208E-4,0
CORVUS BC2,2017-042X,2026-07-20T22:32:09.537792,15.06474935,.00128444,97.4097,1.9868,3.2207,356.9102,0,U,42846,999,49214,.13769889E-3,.1976E-4,0
CORVUS BC1,2017-042Y,2026-07-20T22:19:03.629568,15.06641199,.00110797,97.4130,2.8140,339.4698,20.6083,0,U,42847,999,49217,.16013632E-3,.2317E-4,0
MAKERSAT 0,2017-073D,2026-07-20T11:27:49.602816,15.33132517,.01057163,97.4572,84.2716,153.5455,207.1240,0,U,43016,999,47156,.33826306E-3,.12875E-3,0
SIRION PATHFINDER-2,2018-099B,2026-07-20T01:56:18.057120,15.14800599,.00089975,97.4233,249.3587,174.6217,185.5114,0,U,43759,999,41760,.15057646E-3,.2733E-4,0
CORVUS BC4,2018-099K,2026-07-20T22:13:26.029344,15.12728610,.00068115,97.4049,243.9203,236.2834,123.7749,0,U,43767,999,41750,.1792137E-3,.3077E-4,0
